SKYSAT-C1               
1 41601U 16040C   26166.97879405  .00007960  00000+0  22711-3 0  9990
2 41601  96.9556 198.7640 0003593  60.4236 299.7367 15.36284318557685
LAPAN-A3                
1 41603U 16040E   26166.95103367  .00003055  00000+0  97731-4 0  9993
2 41603  97.1486 163.1373 0011041  29.8712 330.3159 15.33097899554621
GAOFEN-3                
1 41727U 16049A   26166.97392810 -.00000039  00000+0  13027-5 0  9991
2 41727  98.4004 174.7778 0001367 100.3584 259.7760 14.42215208518477
SKYSAT-C4               
1 41771U 16058B   26166.84591060  .00014099  00000+0  26618-3 0  9992
2 41771  96.9167 188.6744 0001265 131.2745 228.8616 15.48549639545264
SKYSAT-C5               
1 41772U 16058C   26166.66926374  .00006527  00000+0  19783-3 0  9995
2 41772  97.0467 207.3773 0001199 328.6214  31.4958 15.34452064543513
SKYSAT-C2               
1 41773U 16058D   26166.63709279  .00009923  00000+0  23428-3 0  9990
2 41773  97.0163 188.7902 0004780  73.9493 286.2281 15.42040471544818
SKYSAT-C3               
1 41774U 16058E   26166.98318906  .00020633  00000+0  33807-3 0  9995
2 41774  96.8999 197.8763 0001531  92.0749 268.0681 15.52493561545924
ALSAT-1B                
1 41785U 16059C   26166.94887612  .00000512  00000+0  88563-4 0  9993
2 41785  97.7744 175.7656 0008017 225.0028 135.0531 14.72274883520390
PATHFINDER 1            
1 41787U 16059E   26166.90934578  .00000478  00000+0  91816-4 0  9991
2 41787  97.8166 166.2433 0027705 207.7461 152.2268 14.67661879519522
SCATSAT 1               
1 41790U 16059H   26166.92828861  .00000925  00000+0  12836-3 0  9995
2 41790  98.1191 230.6814 0053342 251.6527 107.8878 14.79523114101403
GOKTURK 1A              
1 41875U 16073A   26166.94606208  .00000235  00000+0  55285-4 0  9996
2 41875  98.1262  61.6408 0001455  76.7124 283.4240 14.62773557508645
RESOURCESAT-2A          
1 41877U 16074A   26166.94468394 -.00000116  00000+0 -32868-4 0  9993
2 41877  98.7534 240.4588 0003344  86.2309 273.9251 14.21615413494125
CARTOSAT-2D             
1 41948U 17008A   26166.97287431  .00003879  00000+0  18684-3 0  9990
2 41948  97.4109 226.3018 0003880 233.8650 126.2226 15.19326376517395
SENTINEL-2B             
1 42063U 17013A   26166.94875005  .00000057  00000+0  38220-4 0  9996
2 42063  98.5699 241.7404 0001180  87.6071 272.5247 14.30816457484468
CARTOSAT-2E             
1 42767U 17036C   26166.99072978  .00002499  00000+0  12180-3 0  9993
2 42767  97.4277 226.8127 0002593 327.0080  33.0992 15.19243665497964
FORMOSAT-5              
1 42920U 17049A   26166.88052622  .00000135  00000+0  45160-4 0  9990
2 42920  98.2254 242.2193 0012698  87.9631 272.3018 14.50898429466483
SENTINEL-5P             
1 42969U 17064A   26166.86264681  .00000037  00000+0  38708-4 0  9999
2 42969  98.7925 109.0032 0000959  84.2767 275.8518 14.19518776449376
SKYSAT-C11              
1 42987U 17068A   26166.90109827  .00023112  00000+0  31148-3 0  9997
2 42987  97.4350 315.6753 0000694  90.1959 269.9376 15.57835924483042
SKYSAT-C10              
1 42988U 17068B   26166.92306033  .00007699  00000+0  23192-3 0  9990
2 42988  97.4507 303.7573 0001133  95.0455 265.0918 15.34620438482167
SKYSAT-C9               
1 42989U 17068C   26166.94071841  .00010905  00000+0  26148-3 0  9997
2 42989  97.4427 304.6980 0009373 136.8117 223.3866 15.41534512482562
SKYSAT-C8               
1 42990U 17068D   26166.89633488  .00008152  00000+0  22785-3 0  9998
2 42990  97.4525 303.5252 0001463  96.1908 263.9503 15.36954095482116
SKYSAT-C7               
1 42991U 17068E   26166.88991137  .00008529  00000+0  23848-3 0  9995
2 42991  97.4534 304.5081 0007191 110.3101 249.8916 15.36904194482178
SKYSAT-C6               
1 42992U 17068F   26166.90753380  .00007712  00000+0  23542-3 0  9999
2 42992  97.4568 304.5004 0004355 140.9315 219.2243 15.34191902482128
CARTOSAT-2F             
1 43111U 18004A   26166.95701101  .00003206  00000+0  15556-3 0  9993
2 43111  97.4793 226.6034 0000522 220.0700 140.0496 15.19206495467142
GAOFEN-1 02             
1 43259U 18031A   26166.94308090  .00000802  00000+0  12270-3 0  9994
2 43259  98.0532 229.4736 0003908  37.2238 322.9242 14.76455549442510
GAOFEN-1 03             
1 43260U 18031B   26166.98901022  .00000612  00000+0  95282-4 0  9998
2 43260  98.0518 229.3780 0003769  81.4451 278.7185 14.76467539442513
GAOFEN-1 04             
1 43262U 18031D   26166.96468153  .00000533  00000+0  84040-4 0  9993
2 43262  98.0534 229.5442 0002263  83.3515 276.7952 14.76477831442505
SENTINEL-3B             
1 43437U 18039A   26166.92736841  .00000064  00000+0  44625-4 0  9997
2 43437  98.6250 234.4777 0000736  86.8473 273.2792 14.26734293423944
GAOFEN-5 01             
1 43461U 18043A   26166.89714076  .00000276  00000+0  66862-4 0  9993
2 43461  98.4569 138.4562 0003023  85.5143 274.6403 14.60604688431506
GAOFEN-6                
1 43484U 18048A   26166.85139237  .00000304  00000+0  50615-4 0  9990
2 43484  97.8709 229.6314 0011693 171.3993 188.7420 14.76597001433195
