OBJECT_NAME,OBJECT_ID,EPOCH,MEAN_MOTION,ECCENTRICITY,INCLINATION,RA_OF_ASC_NODE,ARG_OF_PERICENTER,MEAN_ANOMALY,EPHEMERIS_TYPE,CLASSIFICATION_TYPE,NORAD_CAT_ID,ELEMENT_SET_NO,REV_AT_EPOCH,BSTAR,MEAN_MOTION_DOT,MEAN_MOTION_DDOT
SKYSAT-C1,2016-040C,2026-06-15T23:29:27.805920,15.36284318,.00035935,96.9556,198.7640,60.4236,299.7367,0,U,41601,999,55768,.22710621E-3,.796E-4,0
LAPAN-A3,2016-040E,2026-06-15T22:49:29.309088,15.33097899,.00110417,97.1486,163.1373,29.8712,330.3159,0,U,41603,999,55462,.97730531E-4,.3055E-4,0
GAOFEN-3,2016-049A,2026-06-15T23:22:27.387840,14.42215208,.00013674,98.4004,174.7778,100.3584,259.7760,0,U,41727,999,51847,.1302714E-5,-.39E-6,0
SKYSAT-C4,2016-058B,2026-06-15T20:18:06.675840,15.48549639,.00012657,96.9167,188.6744,131.2745,228.8616,0,U,41771,999,54526,.26617511E-3,.14099E-3,0
SKYSAT-C5,2016-058C,2026-06-15T16:03:44.387136,15.34452064,.00011999,97.0467,207.3773,328.6214,31.4958,0,U,41772,999,54351,.19783339E-3,.6527E-4,0
SKYSAT-C2,2016-058D,2026-06-15T15:17:24.817056,15.42040471,.00047807,97.0163,188.7902,73.9493,286.2281,0,U,41773,999,54481,.2342776E-3,.9923E-4,0
SKYSAT-C3,2016-058E,2026-06-15T23:35:47.534784,15.52493561,.00015313,96.8999,197.8763,92.0749,268.0681,0,U,41774,999,54592,.33806633E-3,.20633E-3,0
ALSAT-1B,2016-059C,2026-06-15T22:46:22.896768,14.72274883,.00080173,97.7744,175.7656,225.0028,135.0531,0,U,41785,999,52039,.88563381E-4,.512E-5,0
PATHFINDER 1,2016-059E,2026-06-15T21:49:27.475392,14.67661879,.00277058,97.8166,166.2433,207.7461,152.2268,0,U,41787,999,51952,.9181566E-4,.478E-5,0
SCATSAT 1,2016-059H,2026-06-15T22:16:44.135904,14.79523114,.00533421,98.1191,230.6814,251.6527,107.8878,0,U,41790,999,10140,.12836318E-3,.925E-5,0
GOKTURK 1A,2016-073A,2026-06-15T22:42:19.763712,14.62773557,.00014553,98.1262,61.6408,76.7124,283.4240,0,U,41875,999,50864,.55285292E-4,.235E-5,0
RESOURCESAT-2A,2016-074A,2026-06-15T22:40:20.692416,14.21615413,.00033441,98.7534,240.4588,86.2309,273.9251,0,U,41877,999,49412,-.32868195E-4,-.116E-5,0
CARTOSAT-2D,2017-008A,2026-06-15T23:20:56.340384,15.19326376,.00038809,97.4109,226.3018,233.8650,126.2226,0,U,41948,999,51739,.18683648E-3,.3879E-4,0
SENTINEL-2B,2017-013A,2026-06-15T22:46:12.004320,14.30816457,.00011809,98.5699,241.7404,87.6071,272.5247,0,U,42063,999,48446,.38220202E-4,.57E-6,0
CARTOSAT-2E,2017-036C,2026-06-15T23:46:39.052992,15.19243665,.00025939,97.4277,226.8127,327.0080,33.0992,0,U,42767,999,49796,.12180214E-3,.2499E-4,0
FORMOSAT-5,2017-049A,2026-06-15T21:07:57.465408,14.50898429,.00126984,98.2254,242.2193,87.9631,272.3018,0,U,42920,999,46648,.45159696E-4,.135E-5,0
SENTINEL-5P,2017-064A,2026-06-15T20:42:12.684384,14.19518776,.00009598,98.7925,109.0032,84.2767,275.8518,0,U,42969,999,44937,.38707621E-4,.37E-6,0
SKYSAT-C11,2017-068A,2026-06-15T21:37:34.890528,15.57835924,.0000694,97.4350,315.6753,90.1959,269.9376,0,U,42987,999,48304,.31147631E-3,.23112E-3,0
SKYSAT-C10,2017-068B,2026-06-15T22:09:12.412512,15.34620438,.00011333,97.4507,303.7573,95.0455,265.0918,0,U,42988,999,48216,.23192494E-3,.7699E-4,0
SKYSAT-C9,2017-068C,2026-06-15T22:34:38.070624,15.41534512,.00093737,97.4427,304.6980,136.8117,223.3866,0,U,42989,999,48256,.26147565E-3,.10905E-3,0
SKYSAT-C8,2017-068D,2026-06-15T21:30:43.333632,15.36954095,.00014636,97.4525,303.5252,96.1908,263.9503,0,U,42990,999,48211,.22784799E-3,.8152E-4,0
SKYSAT-C7,2017-068E,2026-06-15T21:21:28.342368,15.36904194,.00071915,97.4534,304.5081,110.3101,249.8916,0,U,42991,999,48217,.23848485E-3,.8529E-4,0
SKYSAT-C6,2017-068F,2026-06-15T21:46:50.920320,15.34191902,.00043558,97.4568,304.5004,140.9315,219.2243,0,U,42992,999,48212,.23542017E-3,.7712E-4,0
CARTOSAT-2F,2018-004A,2026-06-15T22:58:05.751264,15.19206495,.00005226,97.4793,226.6034,220.0700,140.0496,0,U,43111,999,46714,.15556053E-3,.3206E-4,0
GAOFEN-1 02,2018-031A,2026-06-15T22:38:02.189760,14.76455549,.00039084,98.0532,229.4736,37.2238,322.9242,0,U,43259,999,44251,.12270087E-3,.802E-5,0
GAOFEN-1 03,2018-031B,2026-06-15T23:44:10.483008,14.76467539,.0003769,98.0518,229.3780,81.4451,278.7185,0,U,43260,999,44251,.95281714E-4,.612E-5,0
GAOFEN-1 04,2018-031D,2026-06-15T23:09:08.484192,14.76477831,.00022637,98.0534,229.5442,83.3515,276.7952,0,U,43262,999,44250,.84039601E-4,.533E-5,0
SENTINEL-3B,2018-039A,2026-06-15T22:15:24.630624,14.26734293,.00007362,98.6250,234.4777,86.8473,273.2792,0,U,43437,999,42394,.44625125E-4,.64E-6,0
GAOFEN-5 01,2018-043A,2026-06-15T21:31:52.961664,14.60604688,.00030238,98.4569,138.4562,85.5143,274.6403,0,U,43461,999,43150,.66862215E-4,.276E-5,0
GAOFEN-6,2018-048A,2026-06-15T20:26:00.300768,14.76597001,.00116931,97.8709,229.6314,171.3993,188.7420,0,U,43484,999,43319,.5061483E-4,.304E-5,0
